{
  "type": "FeatureCollection",
  "features": [
    {
      "type": "Feature",
      "properties": {
        "norad_id": 38867,
        "name": "INTELSAT 23 (IS-23)",
        "group": "intelsat",
        "lat": -0.024438008194492343,
        "lon": 12.973421971689929,
        "alt_km": 35786.957672927376,
        "timestamp": "2025-12-15T22:44:28.591636+00:00",
        "meta_object_name": "INTELSAT 23 (IS-23)",
        "meta_object_id": "2012-057A",
        "meta_epoch": "2025-12-15T06:17:11.520960",
        "meta_mean_motion": 1.00277312,
        "meta_eccentricity": 5.671e-05,
        "meta_inclination": 0.0463,
        "meta_ra_of_asc_node": 96.2209,
        "meta_arg_of_pericenter": 107.4295,
        "meta_mean_anomaly": 281.8228,
        "meta_ephemeris_type": 0,
        "meta_classification_type": "U",
        "meta_norad_cat_id": 38867,
        "meta_element_set_no": 999,
        "meta_rev_at_epoch": 4811,
        "meta_bstar": 0,
        "meta_mean_motion_dot": -2.64e-06,
        "meta_mean_motion_ddot": 0,
        "tle_line1": "1 38867U 12057A   25349.26193890 -.00000264  00000+0  00000+0 0  9999",
        "tle_line2": "2 38867   0.0463  96.2209 0000567 107.4295 281.8228  1.00277312 48119"
      },
      "geometry": {
        "type": "Point",
        "coordinates": [
          12.973421971689929,
          -0.024438008194492343
        ]
      }
    },
    {
      "type": "Feature",
      "properties": {
        "norad_id": 39360,
        "name": "FM-6",
        "group": "intelsat",
        "lat": -0.011036379502724897,
        "lon": -50.173553371646726,
        "alt_km": 35795.11914765329,
        "timestamp": "2025-12-15T22:44:28.591649+00:00",
        "meta_object_name": "FM-6",
        "meta_object_id": "2013-058A",
        "meta_epoch": "2025-12-15T08:27:38.617056",
        "meta_mean_motion": 1.00269303,
        "meta_eccentricity": 0.00029093,
        "meta_inclination": 0.0082,
        "meta_ra_of_asc_node": 55.5333,
        "meta_arg_of_pericenter": 120.9594,
        "meta_mean_anomaly": 278.5314,
        "meta_ephemeris_type": 0,
        "meta_classification_type": "U",
        "meta_norad_cat_id": 39360,
        "meta_element_set_no": 999,
        "meta_rev_at_epoch": 4423,
        "meta_bstar": 0,
        "meta_mean_motion_dot": 4e-08,
        "meta_mean_motion_ddot": 0,
        "tle_line1": "1 39360U 13058A   25349.35253029  .00000004  00000+0  00000+0 0  9992",
        "tle_line2": "2 39360   0.0082  55.5333 0002909 120.9594 278.5314  1.00269303 44234"
      },
      "geometry": {
        "type": "Point",
        "coordinates": [
          -50.173553371646726,
          -0.011036379502724897
        ]
      }
    },
    {
      "type": "Feature",
      "properties": {
        "norad_id": 40271,
        "name": "INTELSAT 30 (IS-30)",
        "group": "intelsat",
        "lat": -0.01593297435871037,
        "lon": -29.14718423358188,
        "alt_km": 35789.075117884364,
        "timestamp": "2025-12-15T22:44:28.591660+00:00",
        "meta_object_name": "INTELSAT 30 (IS-30)",
        "meta_object_id": "2014-062A",
        "meta_epoch": "2025-12-15T04:22:30.006336",
        "meta_mean_motion": 1.00262844,
        "meta_eccentricity": 0.00014931,
        "meta_inclination": 0.014,
        "meta_ra_of_asc_node": 18.4031,
        "meta_arg_of_pericenter": 46.4436,
        "meta_mean_anomaly": 349.8109,
        "meta_ephemeris_type": 0,
        "meta_classification_type": "U",
        "meta_norad_cat_id": 40271,
        "meta_element_set_no": 999,
        "meta_rev_at_epoch": 494,
        "meta_bstar": 0,
        "meta_mean_motion_dot": -1.29e-06,
        "meta_mean_motion_ddot": 0,
        "tle_line1": "1 40271U 14062A   25349.18229174 -.00000129  00000+0  00000+0 0  9995",
        "tle_line2": "2 40271   0.0140  18.4031 0001493  46.4436 349.8109  1.00262844  4940"
      },
      "geometry": {
        "type": "Point",
        "coordinates": [
          -29.14718423358188,
          -0.01593297435871037
        ]
      }
    },
    {
      "type": "Feature",
      "properties": {
        "norad_id": 40333,
        "name": "DIRECTV 14",
        "group": "intelsat",
        "lat": -0.011382400141795406,
        "lon": -33.2755065344079,
        "alt_km": 35786.93540674439,
        "timestamp": "2025-12-15T22:44:28.591672+00:00",
        "meta_object_name": "DIRECTV 14",
        "meta_object_id": "2014-078B",
        "meta_epoch": "2025-12-15T08:59:38.406912",
        "meta_mean_motion": 1.00272333,
        "meta_eccentricity": 2.425e-05,
        "meta_inclination": 0.0059,
        "meta_ra_of_asc_node": 31.6536,
        "meta_arg_of_pericenter": 101.8864,
        "meta_mean_anomaly": 346.4217,
        "meta_ephemeris_type": 0,
        "meta_classification_type": "U",
        "meta_norad_cat_id": 40333,
        "meta_element_set_no": 999,
        "meta_rev_at_epoch": 4020,
        "meta_bstar": 0,
        "meta_mean_motion_dot": -1.04e-06,
        "meta_mean_motion_ddot": 0,
        "tle_line1": "1 40333U 14078B   25349.37475008 -.00000104  00000+0  00000+0 0  9994",
        "tle_line2": "2 40333   0.0059  31.6536 0000242 101.8864 346.4217  1.00272333 40203"
      },
      "geometry": {
        "type": "Point",
        "coordinates": [
          -33.2755065344079,
          -0.011382400141795406
        ]
      }
    },
    {
      "type": "Feature",
      "properties": {
        "norad_id": 40663,
        "name": "DIRECTV 15",
        "group": "intelsat",
        "lat": -0.032667468357545235,
        "lon": -36.910777494289604,
        "alt_km": 35786.50293190943,
        "timestamp": "2025-12-15T22:44:28.591684+00:00",
        "meta_object_name": "DIRECTV 15",
        "meta_object_id": "2015-026A",
        "meta_epoch": "2025-12-15T06:02:57.883776",
        "meta_mean_motion": 1.00271583,
        "meta_eccentricity": 8.69e-06,
        "meta_inclination": 0.0386,
        "meta_ra_of_asc_node": 83.3608,
        "meta_arg_of_pericenter": 72.8558,
        "meta_mean_anomaly": 275.8207,
        "meta_ephemeris_type": 0,
        "meta_classification_type": "U",
        "meta_norad_cat_id": 40663,
        "meta_element_set_no": 999,
        "meta_rev_at_epoch": 3861,
        "meta_bstar": 0,
        "meta_mean_motion_dot": -8.2e-07,
        "meta_mean_motion_ddot": 0,
        "tle_line1": "1 40663U 15026A   25349.25205884 -.00000082  00000+0  00000+0 0  9999",
        "tle_line2": "2 40663   0.0386  83.3608 0000086  72.8558 275.8207  1.00271583 38611"
      },
      "geometry": {
        "type": "Point",
        "coordinates": [
          -36.910777494289604,
          -0.032667468357545235
        ]
      }
    },
    {
      "type": "Feature",
      "properties": {
        "norad_id": 40664,
        "name": "SKY MEXICO-1",
        "group": "intelsat",
        "lat": 0.023214851866441958,
        "lon": -12.783536434752051,
        "alt_km": 35782.11047632822,
        "timestamp": "2025-12-15T22:44:28.591697+00:00",
        "meta_object_name": "SKY MEXICO-1",
        "meta_object_id": "2015-026B",
        "meta_epoch": "2025-12-15T06:09:57.214080",
        "meta_mean_motion": 1.00271913,
        "meta_eccentricity": 0.00024281,
        "meta_inclination": 0.0224,
        "meta_ra_of_asc_node": 295.835,
        "meta_arg_of_pericenter": 344.414,
        "meta_mean_anomaly": 177.6416,
        "meta_ephemeris_type": 0,
        "meta_classification_type": "U",
        "meta_norad_cat_id": 40664,
        "meta_element_set_no": 999,
        "meta_rev_at_epoch": 3861,
        "meta_bstar": 0,
        "meta_mean_motion_dot": -2.14e-06,
        "meta_mean_motion_ddot": 0,
        "tle_line1": "1 40664U 15026B   25349.25691220 -.00000214  00000+0  00000+0 0  9990",
        "tle_line2": "2 40664   0.0224 295.8350 0002428 344.4140 177.6416  1.00271913 38612"
      },
      "geometry": {
        "type": "Point",
        "coordinates": [
          -12.783536434752051,
          0.023214851866441958
        ]
      }
    },
    {
      "type": "Feature",
      "properties": {
        "norad_id": 40874,
        "name": "INTELSAT 34 (IS-34)",
        "group": "intelsat",
        "lat": 0.024559275897567852,
        "lon": 10.449359683117047,
        "alt_km": 35788.41915490328,
        "timestamp": "2025-12-15T22:44:28.591709+00:00",
        "meta_object_name": "INTELSAT 34 (IS-34)",
        "meta_object_id": "2015-039A",
        "meta_epoch": "2025-12-15T04:46:38.428896",
        "meta_mean_motion": 1.00271545,
        "meta_eccentricity": 6.597e-05,
        "meta_inclination": 0.0124,
        "meta_ra_of_asc_node": 311.7695,
        "meta_arg_of_pericenter": 201.039,
        "meta_mean_anomaly": 307.4611,
        "meta_ephemeris_type": 0,
        "meta_classification_type": "U",
        "meta_norad_cat_id": 40874,
        "meta_element_set_no": 999,
        "meta_rev_at_epoch": 3778,
        "meta_bstar": 0,
        "meta_mean_motion_dot": -2.65e-06,
        "meta_mean_motion_ddot": 0,
        "tle_line1": "1 40874U 15039A   25349.19905589 -.00000265  00000+0  00000+0 0  9992",
        "tle_line2": "2 40874   0.0124 311.7695 0000659 201.0390 307.4611  1.00271545 37781"
      },
      "geometry": {
        "type": "Point",
        "coordinates": [
          10.449359683117047,
          0.024559275897567852
        ]
      }
    }
  ]
}